IONOSFERA-M 2           
1 61736U 24199B   26163.23495675  .00000063  00000+0  47748-4 0  9999
2 61736  98.7179  36.3700 0001252  42.6427 317.4848 14.22756646130125
PRSC-EO1                
1 62725U 25012A   26163.31270622  .00006679  00000+0  33444-3 0  9991
2 62725  97.4232 235.8675 0004175 273.5323  86.5434 15.17709019 77452
BIOMASS                 
1 63772U 25090A   26162.57891511  .00000866  00000+0  16120-3 0  9997
2 63772  98.0741 349.9773 0001376  90.5955 269.5407 14.67536577 59860
GOSAT-GW (IBUKI GW)     
1 64694U 25141A   26163.28108378  .00000316  00000+0  64092-4 0  9991
2 64694  98.0569 100.6779 0001427  84.6024 275.5344 14.67555020 51120
IONOSFERA-M 3           
1 64876U 25155A   26163.31860726  .00000032  00000+0  34289-4 0  9994
2 64876  98.6022 125.3462 0000732 165.6429 194.4770 14.21485712 45712
IONOSFERA-M 4           
1 64877U 25155B   26163.28306796  .00000046  00000+0  40618-4 0  9991
2 64877  98.6021 125.2290 0000870 119.1852 240.9413 14.21487904 45702
MICROCARB               
1 64899U 25156A   26163.18860538  .00000468  00000+0  81836-4 0  9999
2 64899  97.9831 240.4151 0015015 289.7668  70.1920 14.72320708 47239
CO3D 3                  
1 64900U 25156B   26163.25092145  .00004450  00000+0  20856-3 0  9990
2 64900  97.4334 242.0147 0001243 133.0359 227.0981 15.20202239 48787
CO3D 4                  
1 64901U 25156C   26163.25106975  .00000317  00000+0  17753-4 0  9999
2 64901  97.4329 242.0144 0000419  35.6851 324.4412 15.20207707 48783
CO3D 2                  
1 64902U 25156D   26163.21773056  .00004936  00000+0  23098-3 0  9995
2 64902  97.4333 241.8809 0001463 110.6184 249.5208 15.20202278 48774
CO3D 1                  
1 64903U 25156E   26163.21788506  .00005598  00000+0  26150-3 0  9999
2 64903  97.4332 241.8810 0001255 114.9157 245.2209 15.20205349 48778
PRSC-S1                 
1 65055U 25164A   26163.29160266  .00005296  00000+0  36453-3 0  9994
2 65055  41.1313 315.3831 0007253 313.8366  46.1848 15.06415083 47697
SENTINEL-6B             
1 66514U 25264A   26163.24512384 -.00000040  00000+0  93195-4 0  9993
2 66514  66.0390 145.4432 0008041 269.2351  90.7743 12.80929950 26533
CAS500-3                
1 66655U 25274F   26163.24011195  .00001181  00000+0  13348-3 0  9991
2 66655  97.7449  91.4038 0006521 123.1519 237.0324 14.88309964 29410
CSG-3                   
1 67304U 26001A   26163.27076086  .00000259  00000+0  39126-4 0  9993
2 67304  97.8887 346.9439 0001339  93.5842 266.5524 14.82150381 23732
PRSC-E03                
1 68835U 26092A   26163.28381875  .00002535  00000+0  17492-3 0  9999
2 68835  37.9997 118.5937 0004557 328.4071  31.6416 15.06645046  7214
CAS500-2                
1 69013U 26100AK  26163.28246045  .00006641  00000+0  30619-3 0  9995
2 69013  97.4087  61.2221 0011083  49.9195 310.3011 15.20533930  6062
