OBJECT_NAME,OBJECT_ID,EPOCH,MEAN_MOTION,ECCENTRICITY,INCLINATION,RA_OF_ASC_NODE,ARG_OF_PERICENTER,MEAN_ANOMALY,EPHEMERIS_TYPE,CLASSIFICATION_TYPE,NORAD_CAT_ID,ELEMENT_SET_NO,REV_AT_EPOCH,BSTAR,MEAN_MOTION_DOT,MEAN_MOTION_DDOT
IONOSFERA-M 2,2024-199B,2026-06-12T05:38:20.263200,14.22756646,.00012528,98.7179,36.3700,42.6427,317.4848,0,U,61736,999,13012,.47747883E-4,.63E-6,0
PRSC-EO1,2025-012A,2026-06-12T07:30:17.817408,15.17709019,.00041751,97.4232,235.8675,273.5323,86.5434,0,U,62725,999,7745,.33443984E-3,.6679E-4,0
BIOMASS,2025-090A,2026-06-11T13:53:38.265504,14.67536577,.00013766,98.0741,349.9773,90.5955,269.5407,0,U,63772,999,5986,.16120382E-3,.866E-5,0
GOSAT-GW (IBUKI GW),2025-141A,2026-06-12T06:44:45.638592,14.67555020,.00014274,98.0569,100.6779,84.6024,275.5344,0,U,64694,999,5112,.64092199E-4,.316E-5,0
IONOSFERA-M 3,2025-155A,2026-06-12T07:38:47.667264,14.21485712,.00007324,98.6022,125.3462,165.6429,194.4770,0,U,64876,999,4571,.3428916E-4,.32E-6,0
IONOSFERA-M 4,2025-155B,2026-06-12T06:47:37.071744,14.21487904,.000087,98.6021,125.2290,119.1852,240.9413,0,U,64877,999,4570,.40618217E-4,.46E-6,0
MICROCARB,2025-156A,2026-06-12T04:31:35.504832,14.72320708,.00150154,97.9831,240.4151,289.7668,70.1920,0,U,64899,999,4723,.81836451E-4,.468E-5,0
CO3D 3,2025-156B,2026-06-12T06:01:19.613280,15.20202239,.00012432,97.4334,242.0147,133.0359,227.0981,0,U,64900,999,4878,.20856369E-3,.445E-4,0
CO3D 4,2025-156C,2026-06-12T06:01:32.426400,15.20207707,.00004196,97.4329,242.0144,35.6851,324.4412,0,U,64901,999,4878,.17753242E-4,.317E-5,0
CO3D 2,2025-156D,2026-06-12T05:13:31.920384,15.20202278,.00014639,97.4333,241.8809,110.6184,249.5208,0,U,64902,999,4877,.23097944E-3,.4936E-4,0
CO3D 1,2025-156E,2026-06-12T05:13:45.269184,15.20205349,.0001255,97.4332,241.8810,114.9157,245.2209,0,U,64903,999,4877,.26150127E-3,.5598E-4,0
PRSC-S1,2025-164A,2026-06-12T06:59:54.469824,15.06415083,.00072536,41.1313,315.3831,313.8366,46.1848,0,U,65055,999,4769,.36452583E-3,.5296E-4,0
SENTINEL-6B,2025-264A,2026-06-12T05:52:58.699776,12.80929950,.00080411,66.0390,145.4432,269.2351,90.7743,0,U,66514,999,2653,.93195447E-4,-.4E-6,0
CAS500-3,2025-274F,2026-06-12T05:45:45.672480,14.88309964,.0006521,97.7449,91.4038,123.1519,237.0324,0,U,66655,999,2941,.13348236E-3,.1181E-4,0
CSG-3,2026-001A,2026-06-12T06:29:53.738304,14.82150381,.00013397,97.8887,346.9439,93.5842,266.5524,0,U,67304,999,2373,.39126151E-4,.259E-5,0
PRSC-E03,2026-092A,2026-06-12T06:48:41.940000,15.06645046,.00045575,37.9997,118.5937,328.4071,31.6416,0,U,68835,999,721,.17491925E-3,.2535E-4,0
CAS500-2,2026-100AK,2026-06-12T06:46:44.582880,15.20533930,.00110836,97.4087,61.2221,49.9195,310.3011,0,U,69013,999,606,.3061921E-3,.6641E-4,0
